STARLINK-2078           
1 47675U 21012BH  24060.17238832  .00005063  00000+0  35861-3 0  9990
2 47675  53.0531 131.4416 0001616 100.4198 259.6974 15.06389935168281
STARLINK-2083           
1 47676U 21012BJ  24060.16777923  .00003762  00000+0  27125-3 0  9997
2 47676  53.0555  21.4592 0001418  93.1388 266.9764 15.06406092169823
STARLINK-2090           
1 47677U 21012BK  24059.56140524  .00012578  00000+0  86176-3 0  9997
2 47677  53.0528 154.1723 0001163  92.6850 267.4272 15.06400393167915
STARLINK-2095           
1 47679U 21012BM  24059.65723984 -.00000633  00000+0 -23592-4 0  9991
2 47679  53.0539 153.7521 0001426  92.2697 267.8455 15.06400327168451
STARLINK-2068           
1 47722U 21017A   24059.89919007 -.00000215  00000+0  44282-5 0  9999
2 47722  53.0536 277.9077 0001398  94.7539 265.3609 15.06397259165801
STARLINK-2107           
1 47723U 21017B   24059.70794658  .00001957  00000+0  15031-3 0  9994
2 47723  53.0534 213.5255 0001348  91.1545 268.9598 15.06385860167338
STARLINK-2116           
1 47724U 21017C   24060.14289017  .00001088  00000+0  91959-4 0  9992
2 47724  53.0552 211.5664 0001513 113.7948 246.3200 15.06391841166754
STARLINK-2125           
1 47725U 21017D   24059.91161132 -.00003358  00000+0 -20676-3 0  9994
2 47725  53.0541 282.6096 0001380  89.6551 270.4596 15.06381889166368
STARLINK-2126           
1 47726U 21017E   24059.88197118  .00025306  00000+0  12186-2 0  9995
2 47726  53.0574 275.6579 0004384 199.7235 160.3591 15.18616050166458
STARLINK-2129           
1 47727U 21017F   24059.78163610  .00001657  00000+0  13010-3 0  9996
2 47727  53.0542 203.1901 0001412  93.3596 266.7555 15.06398941167496
STARLINK-2131           
1 47728U 21017G   24059.93740817  .00002522  00000+0  18822-3 0  9992
2 47728  53.0530 282.4977 0001412  86.9048 273.2103 15.06388686165740
STARLINK-2132           
1 47729U 21017H   24059.76740899 -.00001765  00000+0 -99624-4 0  9994
2 47729  53.0536 228.4570 0001448 109.2211 250.8934 15.06397187167107
STARLINK-2140           
1 47730U 21017J   24060.02632479 -.00002621  00000+0 -15712-3 0  9998
2 47730  53.0543 297.1081 0001395  95.6912 264.4236 15.06397398165540
STARLINK-2141           
1 47731U 21017K   24059.96597478  .00006427  00000+0  45001-3 0  9999
2 47731  53.0532 292.3701 0001469  85.6351 274.4806 15.06394548165608
STARLINK-2142           
1 47732U 21017L   24060.13784670 -.00000810  00000+0 -35466-4 0  9990
2 47732  53.0533 206.8350 0001228  91.4652 268.6477 15.06397056166812
STARLINK-2143           
1 47733U 21017M   24059.95399706  .00002267  00000+0  17105-3 0  9996
2 47733  53.0551 302.4217 0001361  94.6626 265.4518 15.06403979166141
STARLINK-2144           
1 47734U 21017N   24059.90699683  .00001177  00000+0  97893-4 0  9991
2 47734  53.0538 292.6354 0001413  81.7391 278.3758 15.06395893165595
STARLINK-2146           
1 47735U 21017P   24059.72409126 -.00000490  00000+0 -14001-4 0  9992
2 47735  53.0537 218.6124 0001266  97.0473 263.0659 15.06397309166614
STARLINK-2147           
1 47736U 21017Q   24059.87474200 -.00000389  00000+0 -71948-5 0  9995
2 47736  53.0532 282.7800 0001428  90.2514 269.8639 15.06393376165738
STARLINK-2148           
1 47737U 21017R   24059.32726528  .00000527  00000+0  26007-4 0  9996
2 47737  53.0544  78.6522 0001280  78.5272 281.5874 15.35402277169257
STARLINK-2149           
1 47738U 21017S   24060.25001157  .00159864  00000+0  12042-2 0  9996
2 47738  53.0515 228.1335 0001653 346.0489 249.7185 15.71525614166537
STARLINK-2150           
1 47739U 21017T   24060.00329809  .00000601  00000+0  59238-4 0  9991
2 47739  53.0570 307.2016 0001522  86.0841 274.0322 15.06402579165403
STARLINK-2152           
1 47740U 21017U   24059.91805435  .00001734  00000+0  13530-3 0  9997
2 47740  53.0542 292.5790 0001469 102.7743 257.3410 15.06396299166275
STARLINK-2154           
1 47741U 21017V   24059.86644102  .00010704  00000+0  73623-3 0  9990
2 47741  53.0532 292.8163 0001532  96.1541 263.9622 15.06407266166225
STARLINK-2156           
1 47742U 21017W   24060.01112350 -.00001192  00000+0 -61166-4 0  9998
2 47742  53.0540 282.1634 0001424  89.9389 270.1763 15.06396233165754
STARLINK-2157           
1 47743U 21017X   24059.90423072 -.00000656  00000+0 -25131-4 0  9997
2 47743  53.0541 282.6481 0001534  94.1513 265.9651 15.06399663166399
STARLINK-2158           
1 47744U 21017Y   24059.87748654  .00003995  00000+0  28685-3 0  9993
2 47744  53.0539 282.7164 0001298 101.6674 258.4460 15.06410009166411
STARLINK-2159           
1 47745U 21017Z   24060.04337976  .00002007  00000+0  15361-3 0  9996
2 47745  53.0537 292.0193 0001493  88.3886 271.7274 15.06398315165616
STARLINK-2160           
1 47746U 21017AA  24060.03601377  .00007328  00000+0  51048-3 0  9998
2 47746  53.0536 292.0556 0001463  87.2953 272.8204 15.06390868165619
STARLINK-2161           
1 47747U 21017AB  24059.90054831 -.00000544  00000+0 -17619-4 0  9992
2 47747  53.0546 282.6634 0001540  93.1427 266.9738 15.06395985165735
STARLINK-2162           
1 47748U 21017AC  24059.89317288  .00000334  00000+0  41315-4 0  9994
2 47748  53.0526 282.6961 0001449  94.7984 265.3170 15.06398762165739
STARLINK-2163           
1 47749U 21017AD  24059.90791366  .00000142  00000+0  28439-4 0  9999
2 47749  53.0537 282.6305 0001468  96.9214 263.1942 15.06399503165732
STARLINK-2164           
1 47750U 21017AE  24059.88580248  .00005724  00000+0  40284-3 0  9995
2 47750  53.0526 282.7295 0001474  88.5553 271.5604 15.06399728166368
STARLINK-2168           
1 47751U 21017AF  24059.84985987  .00000318  00000+0  40239-4 0  9996
2 47751  53.0540 272.8874 0001707  93.2813 266.8371 15.06402188166508
STARLINK-2169           
1 47752U 21017AG  24060.01618722 -.00000330  00000+0 -32601-5 0  9999
2 47752  53.0546 287.1457 0001447 104.7091 255.4059 15.06400323165682
STARLINK-2170           
1 47753U 21017AH  24059.92543019  .00001404  00000+0  11310-3 0  9997
2 47753  53.0542 292.5502 0001722  91.4960 268.6226 15.06402214166272
STARLINK-2171           
1 47754U 21017AJ  24059.96229057  .00005878  00000+0  41330-3 0  9999
2 47754  53.0530 292.3840 0001365  90.7185 269.3960 15.06386051165606
STARLINK-2174           
1 47756U 21017AL  24060.02495800  .00000404  00000+0  46047-4 0  9992
2 47756  53.0543 292.1033 0001669  93.7044 266.4136 15.06387498165618
STARLINK-2175           
1 47757U 21017AM  24060.01020054  .00011838  00000+0  81217-3 0  9997
2 47757  53.0533 292.1710 0001091  89.7976 270.3138 15.06404189165611
STARLINK-2178           
1 47760U 21017AQ  24060.04245519  .00003884  00000+0  27948-3 0  9992
2 47760  53.0547 302.0230 0001406  93.1252 266.9898 15.06398052165473
STARLINK-2179           
1 47761U 21017AR  24059.87382032 -.00000844  00000+0 -37789-4 0  9994
2 47761  53.0541 292.7831 0001305  83.3404 276.7733 15.06393635166221
STARLINK-2180           
1 47762U 21017AS  24059.96643574  .00010333  00000+0  71160-3 0  9998
2 47762  53.0544 307.3746 0001568  82.6136 277.5031 15.06398484165392
STARLINK-2181           
1 47763U 21017AT  24059.91576277  .00019729  00000+0  13402-2 0  9991
2 47763  53.0525 297.5936 0001111  89.2222 270.8894 15.06385625166157
STARLINK-2182           
1 47764U 21017AU  24059.95169687  .00010618  00000+0  73077-3 0  9992
2 47764  53.0536 307.4317 0001277  84.3525 275.7609 15.06394553166078
STARLINK-2184           
1 47766U 21017AW  24059.96917664  .00010789  00000+0  74215-3 0  9995
2 47766  53.0544 307.3451 0001482 101.9529 258.1626 15.06395855165399
STARLINK-2185           
1 47767U 21017AX  24060.06180870  .00006915  00000+0  48269-3 0  9996
2 47767  53.0540 291.9376 0001497 100.8986 259.2172 15.06395724165620
STARLINK-2189           
1 47768U 21017AY  24059.90381824  .00001707  00000+0  13346-3 0  9992
2 47768  53.0545 308.0431 0001510  83.1958 276.9202 15.06392239166030
STARLINK-2192           
1 47769U 21017AZ  24059.91252100 -.00000095  00000+0  12487-4 0  9994
2 47769  53.0539 272.6092 0001509  96.2154 263.9007 15.06402824166552
STARLINK-2193           
1 47770U 21017BA  24059.85401264 -.00001553  00000+0 -85422-4 0  9996
2 47770  53.0535 287.8718 0001318  80.8703 279.2435 15.06389805166312
STARLINK-2194           
1 47771U 21017BB  24059.86505826 -.00004041  00000+0 -25268-3 0  9993
2 47771  53.0535 287.8197 0001384  98.4453 261.6692 15.06384577166326
STARLINK-2195           
1 47772U 21017BC  24059.92082632  .00008166  00000+0  56671-3 0  9998
2 47772  53.0534 302.5700 0001410  90.5102 269.6048 15.06384035166091
STARLINK-2196           
1 47773U 21017BD  24059.91714009  .00002466  00000+0  18443-3 0  9990
2 47773  53.0547 302.5856 0001428  93.6020 266.5132 15.06393821166082
STARLINK-2197           
1 47774U 21017BE  24060.04614444  .00003139  00000+0  22962-3 0  9998
2 47774  53.0543 302.0101 0001252  79.9257 280.1873 15.06388001165471
STARLINK-2198           
1 47775U 21017BF  24059.92451778  .00001925  00000+0  14818-3 0  9995
2 47775  53.0555 302.5528 0001319  89.7199 270.3941 15.06384054166147
STARLINK-2209           
1 47776U 21017BG  24060.01757609 -.00000537  00000+0 -17171-4 0  9996
2 47776  53.0550 292.1379 0001312  98.1490 261.9648 15.06389621165618
STARLINK-2210           
1 47777U 21017BH  24059.88856775  .00000526  00000+0  54240-4 0  9998
2 47777  53.0548 292.7175 0001441 100.2304 259.8847 15.06394867166243
STARLINK-2211           
1 47778U 21017BJ  24059.92173854 -.00000579  00000+0 -19973-4 0  9998
2 47778  53.0549 292.5629 0001513 100.9507 259.1652 15.06399272166241
STARLINK-2213           
1 47780U 21017BL  24059.94754614  .00004554  00000+0  32457-3 0  9998
2 47780  53.0539 292.4523 0001280  83.6501 276.4633 15.06385281165613
STARLINK-2223           
1 47781U 21017BM  24060.04706177  .00000767  00000+0  70363-4 0  9994
2 47781  53.0538 292.0042 0001525  86.4968 273.6195 15.06394668165616
